NORAD_CAT_ID,OBJECT_NAME,OBJECT_TYPE,EPOCH,MEAN_MOTION,ECCENTRICITY,INCLINATION,RA_OF_ASC_NODE,ARG_OF_PERICENTER,MEAN_ANOMALY,BSTAR,MEAN_MOTION_DOT,MEAN_MOTION_DDOT,TLE_LINE0,TLE_LINE1,TLE_LINE2,SEMIMAJOR_AXIS,PERIOD,APOGEE,PERIGEE,DECAYED
53291.0,STARLINK-4166,PAYLOAD,2022-09-28 22:00:00,15.73305938,0.0002686999999999,53.2158,74.7988,19.3963,306.5403,0.00072996,0.00103577,0.0,0 STARLINK-4166,1 53291U 22086BB  22271.91667824  .00103577  00000-0  72996-3 0  9994,2 53291  53.2158  74.7988 0002687  19.3963 306.5403 15.73305938 11077,6727.593000000003,91.527,351.266,347.65,0.0
53291.0,STARLINK-4166,PAYLOAD,2022-09-29 14:00:01,15.73209618,0.0002737,53.2159,71.4989,12.8392,130.7952,5.2742e-05,6.790000000000001e-05,0.0,0 STARLINK-4166,1 53291U 22086BB  22272.58334491  .00006790  00000-0  52742-4 0  9996,2 53291  53.2159  71.4989 0002737  12.8392 130.7952 15.73209618 11189,6727.868,91.533,351.574,347.891,0.0
53291.0,STARLINK-4166,PAYLOAD,2022-09-29 22:00:00,15.73196639,0.0002991,53.2155,69.8507,11.8345,220.7499,2.311e-05,2.622e-05,0.0,0 STARLINK-4166,1 53291U 22086BB  22272.91667824  .00002622  00000-0  23110-4 0  9999,2 53291  53.2155  69.8507 0002991  11.8345 220.7499 15.73196639  1308,6727.905,91.533,351.782,347.75699999999995,0.0
53291.0,STARLINK-4166,PAYLOAD,2022-09-30 06:00:02,15.73142857,0.0002768999999999,53.2158,68.1992,12.0857,309.5068,0.0005571,0.00078112,0.0,0 STARLINK-4166,1 53291U 22086BB  22273.25002315  .00078112  00000-0  55710-3 0  9992,2 53291  53.2158  68.1992 0002769  12.0857 309.5068 15.73142857 11284,6728.058000000001,91.537,351.786,348.06,0.0
53291.0,STARLINK-4166,PAYLOAD,2022-09-30 14:00:01,15.73233336,0.0002924,53.2161,66.5506,11.1498,39.2598,4.309e-05,5.438e-05,0.0,0 STARLINK-4166,1 53291U 22086BB  22273.58334491  .00005438  00000-0  43090-4 0  9991,2 53291  53.2161  66.5506 0002924  11.1498  39.2598 15.73233336  1305,6727.8,91.531,351.63199999999995,347.6980000000001,0.0
53291.0,STARLINK-4166,PAYLOAD,2022-09-30 22:00:00,15.73237555,0.0003188999999999,53.216,64.9023,9.3376,130.0499,-0.00017034,-0.00024505,0.0,0 STARLINK-4166,1 53291U 22086BB  22273.91667824 -.00024505  00000-0 -17034-3 0  9993,2 53291  53.2160  64.9023 0003189   9.3376 130.0499 15.73237555  1305,6727.788000000001,91.531,351.7990000000001,347.5080000000001,0.0
53291.0,STARLINK-4166,PAYLOAD,2022-10-01 14:00:01,15.73215296,0.0003198,53.216,61.6024,14.6222,302.6528,-0.00026905,-0.00038247,0.0,0 STARLINK-4166,1 53291U 22086BB  22274.58334491 -.00038247  00000-0 -26905-3 0  9993,2 53291  53.2160  61.6024 0003198  14.6222 302.6528 15.73215296  1307,6727.852,91.532,351.86800000000005,347.565,0.0
53291.0,STARLINK-4166,PAYLOAD,2022-10-01 22:00:00,15.73181842,0.0003401,53.2153,59.9538,10.8207,35.386,-0.00039649,-0.00055876,0.0,0 STARLINK-4166,1 53291U 22086BB  22274.91667824 -.00055876  00000-0 -39649-3 0  9995,2 53291  53.2153  59.9538 0003401  10.8207  35.3860 15.73181842  1305,6727.946999999999,91.534,352.1,347.524,0.0
53291.0,STARLINK-4166,PAYLOAD,2022-10-02 06:00:00,15.7306967,0.0003138,53.2156,58.3025,9.0204,126.0868,0.00092744,0.00130872,0.0,0 STARLINK-4166,1 53291U 22086BB  22275.25001157  .00130872  00000-0  92744-3 0  9997,2 53291  53.2156  58.3025 0003138   9.0204 126.0868 15.73069670 11600,6728.267,91.541,352.24300000000005,348.02,0.0
53291.0,STARLINK-4166,PAYLOAD,2022-10-02 14:00:01,15.73190564,0.0003333999999999,53.2159,56.6543,10.4394,213.4858,0.00037732,0.00052656,0.0,0 STARLINK-4166,1 53291U 22086BB  22275.58334491  .00052656  00000-0  37732-3 0  9992,2 53291  53.2159  56.6543 0003334  10.4394 213.4858 15.73190564  1306,6727.922,91.534,352.03,347.5440000000001,0.0
53291.0,STARLINK-4166,PAYLOAD,2022-10-02 22:00:00,15.73256144,0.0003556,53.2157,55.0056,6.9734,305.8851,-0.00018604,-0.00026723,0.0,0 STARLINK-4166,1 53291U 22086BB  22275.91667824 -.00026723  00000-0 -18604-3 0  9993,2 53291  53.2157  55.0056 0003556   6.9734 305.8851 15.73256144  1306,6727.735,91.53,351.992,347.208,0.0
53291.0,STARLINK-4166,PAYLOAD,2022-10-03 14:00:01,15.73259902,0.0003595,53.2154,51.7057,7.9598,122.87,-0.00039355,-0.00055655,0.0,0 STARLINK-4166,1 53291U 22086BB  22276.58334491 -.00055655  00000-0 -39355-3 0  9990,2 53291  53.2154  51.7057 0003595   7.9598 122.8700 15.73259902  1304,6727.724,91.53,352.0080000000001,347.171,0.0
53291.0,STARLINK-4166,PAYLOAD,2022-10-03 22:00:00,15.73237781,0.0003734,53.2148,50.0566,5.1482,214.6516,-0.00030049,-0.00042669,0.0,0 STARLINK-4166,1 53291U 22086BB  22276.91667824 -.00042669  00000-0 -30049-3 0  9998,2 53291  53.2148  50.0566 0003734   5.1482 214.6516 15.73237781  1307,6727.7869999999975,91.531,352.165,347.14,0.0
53291.0,STARLINK-4166,PAYLOAD,2022-10-04 06:00:00,15.73215012,0.0003543999999999,53.215,48.405,6.5434,302.2321,-0.00017611,-0.0002528999999999,0.0,0 STARLINK-4166,1 53291U 22086BB  22277.25001157 -.00025290  00000-0 -17611-3 0  9998,2 53291  53.2150  48.4050 0003544   6.5434 302.2321 15.73215012 11919,6727.852,91.532,352.102,347.333,0.0
53291.0,STARLINK-4166,PAYLOAD,2022-10-04 14:00:01,15.73200065,0.0003714,53.2159,46.7539,8.0887,29.6302,-0.00030491,-0.00043215,0.0,0 STARLINK-4166,1 53291U 22086BB  22277.58334491 -.00043215  00000-0 -30491-3 0  9992,2 53291  53.2159  46.7539 0003714   8.0887  29.6302 15.73200065  1302,6727.895,91.533,352.259,347.261,0.0
53291.0,STARLINK-4166,PAYLOAD,2022-10-04 22:00:00,15.73335766,0.0003365,53.216,45.0962,353.591,133.0264,-0.0057957,-0.00750139,0.0,0 STARLINK-4166,1 53291U 22086BB  22277.91667824 -.00750139  00000-0 -57957-2 0  9993,2 53291  53.2160  45.0962 0003365 353.5910 133.0264 15.73335766  1307,6727.5080000000025,91.525,351.63699999999994,347.1090000000001,0.0
53291.0,STARLINK-4166,PAYLOAD,2022-10-05 06:00:00,15.73121213,0.0003186,53.2177,43.4344,309.0107,266.2722,-0.008581,-0.01078328,0.0,0 STARLINK-4166,1 53291U 22086BB  22278.25001157 -.01078328  00000-0 -85810-2 0  9995,2 53291  53.2177  43.4344 0003186 309.0107 266.2722 15.73121213 12070,6728.12,91.538,352.12800000000016,347.841,0.0
53291.0,STARLINK-4166,PAYLOAD,2022-10-05 14:00:01,15.72364362,0.0004263999999999,53.2172,41.79,289.2324,14.4635,-0.0096187,-0.01160577,0.0,0 STARLINK-4166,1 53291U 22086BB  22278.58335648 -.01160577  00000-0 -96187-2 0  9993,2 53291  53.2172  41.7900 0004264 289.2324  14.4635 15.72364362  1305,6730.279,91.582,355.01300000000015,349.274,0.0
53291.0,STARLINK-4166,PAYLOAD,2022-10-05 22:00:00,15.71522496,0.000662,53.217,40.1411,274.8282,116.2109,-0.0095453999999999,-0.01117798,0.0,0 STARLINK-4166,1 53291U 22086BB  22278.91667824 -.01117798  00000-0 -95454-2 0  9997,2 53291  53.2170  40.1411 0006620 274.8282 116.2109 15.71522496 12182,6732.682,91.631,359.004,350.09,0.0
53291.0,STARLINK-4166,PAYLOAD,2022-10-06 14:00:01,15.69902354,0.0003246,53.217,36.8556,266.272,296.6213,-0.010359,-0.01128942,0.0,0 STARLINK-4166,1 53291U 22086BB  22279.58334491 -.01128942  00000-0 -10359-1 0  9995,2 53291  53.2170  36.8556 0003246 266.2720 296.6213 15.69902354  1300,6737.313,91.725,361.365,356.991,0.0
53291.0,STARLINK-4166,PAYLOAD,2022-10-06 22:42:55,15.69037332,9.45e-05,53.2168,35.0685,326.1597,129.5633,-0.011053,-0.01176623,0.0,0 STARLINK-4166,1 53291U 22086BB  22279.94646991 -.01176623  00000-0 -11053-1 0  9997,2 53291  53.2168  35.0685 0000945 326.1597 129.5633 15.69037332  1307,6739.7890000000025,91.776,362.291,361.017,0.0
53291.0,STARLINK-4166,PAYLOAD,2022-10-07 00:00:00,15.68883016,7.929999999999999e-05,53.2172,34.8039,350.8425,47.4779,-0.010758,-0.0112299,0.0,0 STARLINK-4166,1 53291U 22086BB  22280.00001157 -.01122990  00000-0 -10758-1 0  9994,2 53291  53.2172  34.8039 0000793 350.8425  47.4779 15.68883016 12350,6740.231,91.785,362.631,361.562,0.0
53291.0,STARLINK-4166,PAYLOAD,2022-10-07 14:00:01,15.67458009,0.0001325,53.2175,31.9387,52.9585,40.3894,-0.011389,-0.01139731,0.0,0 STARLINK-4166,1 53291U 22086BB  22280.58334491 -.01139731  00000-0 -11389-1 0  9999,2 53291  53.2175  31.9387 0001325  52.9585  40.3894 15.67458009  1308,6744.316,91.868,367.074,365.287,0.0
53291.0,STARLINK-4166,PAYLOAD,2022-10-07 22:00:00,15.66650742,0.0001261,53.2167,30.3047,63.2669,111.6066,-0.011878,-0.01149086,0.0,0 STARLINK-4166,1 53291U 22086BB  22280.91667824 -.01149086  00000-0 -11878-1 0  9992,2 53291  53.2167  30.3047 0001261  63.2669 111.6066 15.66650742  1302,6746.632,91.916,369.348,367.647,0.0
53291.0,STARLINK-4166,PAYLOAD,2022-10-08 14:00:01,15.65028568,0.0001008,53.217,27.0416,79.1385,255.8556,-0.0127599999999999,-0.01155252,0.0,0 STARLINK-4166,1 53291U 22086BB  22281.58334491 -.01155252  00000-0 -12760-1 0  9990,2 53291  53.2170  27.0416 0001008  79.1385 255.8556 15.65028568  1308,6751.294,92.011,373.839,372.478,0.0
53291.0,STARLINK-4166,PAYLOAD,2022-10-08 22:00:00,15.64115627,0.0001137999999999,53.2167,25.4126,48.7488,4.8864,-0.011493,-0.01001182,0.0,0 STARLINK-4166,1 53291U 22086BB  22281.91667824 -.01001182  00000-0 -11493-1 0  9990,2 53291  53.2167  25.4126 0001138  48.7488   4.8864 15.64115627 12650,6753.92,92.065,376.554,375.017,0.0
53291.0,STARLINK-4166,PAYLOAD,2022-10-09 06:00:00,15.6338792,0.0001274,53.2174,23.7837,63.976000000000006,67.2375,-0.0133689999999999,-0.011358,0.0,0 STARLINK-4166,1 53291U 22086BB  22282.25001157 -.01135800  00000-0 -13369-1 0  9998,2 53291  53.2174  23.7837 0001274  63.9760  67.2375 15.63387920 12703,6756.016,92.108,378.742,377.02,0.0
53291.0,STARLINK-4166,PAYLOAD,2022-10-09 14:00:01,15.62601414,0.0001291999999999,53.2173,22.1619,75.8684,131.969,-0.0142669999999999,-0.01171224,0.0,0 STARLINK-4166,1 53291U 22086BB  22282.58334491 -.01171224  00000-0 -14267-1 0  9992,2 53291  53.2173  22.1619 0001292  75.8684 131.9690 15.62601414  1309,6758.283,92.154,381.021,379.275,0.0
53291.0,STARLINK-4166,PAYLOAD,2022-10-09 22:00:00,15.61761458,0.000111,53.2173,20.5376,82.6955,200.8179,-0.014277,-0.01137493,0.0,0 STARLINK-4166,1 53291U 22086BB  22282.91667824 -.01137493  00000-0 -14277-1 0  9999,2 53291  53.2173  20.5376 0001110  82.6955 200.8179 15.61761458 12806,6760.706,92.204,383.321,381.82,0.0
